IRIDIUM 150             
1 43257U 18030J   25257.49272546  .00000046  00000+0  92230-5 0  9993
2 43257  86.3955  45.6977 0002361  89.3192 270.8274 14.34217569390645
IRIDIUM 143             
1 43258U 18030K   25257.47369810  .00000097  00000+0  27514-4 0  9991
2 43258  86.3957  45.7875 0002546  86.6468 273.5019 14.34218405390576
IRIDIUM 161             
1 43478U 18047C   25257.30160250  .00000314  00000+0  87360-4 0  9999
2 43478  86.4537 203.7003 0002135  87.4283 272.7162 14.43279868385341
IRIDIUM 152             
1 43479U 18047D   25257.37664796  .00000252  00000+0  82818-4 0  9995
2 43479  86.4012 203.5299 0002256  89.2150 270.9305 14.34218554382950
IRIDIUM 147             
1 43480U 18047E   25257.31322095  .00000252  00000+0  82769-4 0  9999
2 43480  86.4015 203.5567 0002152  83.1749 276.9692 14.34218536382949
IRIDIUM 110             
1 43481U 18047F   25257.31956209  .00000135  00000+0  41055-4 0  9993
2 43481  86.4014 203.6384 0001824  91.0722 269.0683 14.34217541382938
IRIDIUM 162             
1 43482U 18047G   25257.36462371  .00000309  00000+0  85959-4 0  9995
2 43482  86.4536 203.5684 0002186  92.2146 267.9305 14.43277976385349
IRIDIUM 160             
1 43569U 18061A   25257.47470365  .00000161  00000+0  50570-4 0  9998
2 43569  86.4045 172.0175 0001955  85.8606 274.2814 14.34218682373855
